STARLINK-31863          
1 59789U 24093H   26068.46042682  .00000928  00000+0  43258-4 0  9994
2 59789  43.0004 209.9087 0001219 266.9233  93.1479 15.27574977102662
TEVEL2-8                
1 63239U 25052AF  26068.66815442  .00019130  00000+0  69304-3 0  9993
2 63239  97.4055 324.2923 0008031 124.9191 235.2804 15.28392908 54807
